[{"OBJECT_NAME":"STARLINK-3293","OBJECT_ID":"2021-125W","EPOCH":"2026-03-09T19:41:30.278976","MEAN_MOTION":15.08840405,"ECCENTRICITY":0.00012576,"INCLINATION":53.2166,"RA_OF_ASC_NODE":248.5343,"ARG_OF_PERICENTER":86.2582,"MEAN_ANOMALY":273.8554,"EPHEMERIS_TYPE":0,"CLASSIFICATION_TYPE":"U","NORAD_CAT_ID":50176,"ELEMENT_SET_NO":999,"REV_AT_EPOCH":23666,"BSTAR":0.00011188765,"MEAN_MOTION_DOT":1.493e-5,"MEAN_MOTION_DDOT":0},{"OBJECT_NAME":"DELTA 1 DEB","OBJECT_ID":"1977-065AE","EPOCH":"2026-03-09T11:34:18.251616","MEAN_MOTION":13.74851839,"ECCENTRICITY":0.06655628,"INCLINATION":29.0857,"RA_OF_ASC_NODE":187.1877,"ARG_OF_PERICENTER":7.8635,"MEAN_ANOMALY":353.1809,"EPHEMERIS_TYPE":0,"CLASSIFICATION_TYPE":"U","NORAD_CAT_ID":10201,"ELEMENT_SET_NO":999,"REV_AT_EPOCH":39513,"BSTAR":0.00029282794,"MEAN_MOTION_DOT":1.63e-5,"MEAN_MOTION_DDOT":0}]
